[{"OBJECT_NAME":"BEIDOU-3 M17 (C36)","OBJECT_ID":"2018-093A","EPOCH":"2026-03-02T11:14:19.656384","MEAN_MOTION":1.86228347,"ECCENTRICITY":0.00069943,"INCLINATION":54.1714,"RA_OF_ASC_NODE":185.9163,"ARG_OF_PERICENTER":297.4131,"MEAN_ANOMALY":70.7484,"EPHEMERIS_TYPE":0,"CLASSIFICATION_TYPE":"U","NORAD_CAT_ID":43706,"ELEMENT_SET_NO":999,"REV_AT_EPOCH":4955,"BSTAR":0,"MEAN_MOTION_DOT":-2.6e-7,"MEAN_MOTION_DDOT":0},{"OBJECT_NAME":"BEIDOU-3 M18 (C37)","OBJECT_ID":"2018-093B","EPOCH":"2026-03-02T07:38:17.290752","MEAN_MOTION":1.86226384,"ECCENTRICITY":0.000602,"INCLINATION":54.1724,"RA_OF_ASC_NODE":185.9133,"ARG_OF_PERICENTER":341.6195,"MEAN_ANOMALY":18.311,"EPHEMERIS_TYPE":0,"CLASSIFICATION_TYPE":"U","NORAD_CAT_ID":43707,"ELEMENT_SET_NO":999,"REV_AT_EPOCH":4954,"BSTAR":0,"MEAN_MOTION_DOT":-2.8e-7,"MEAN_MOTION_DDOT":0},{"OBJECT_NAME":"BEIDOU-3 IGSO-1 (C38)","OBJECT_ID":"2019-023A","EPOCH":"2026-03-03T19:46:48.267264","MEAN_MOTION":1.00271041,"ECCENTRICITY":0.00260079,"INCLINATION":58.5529,"RA_OF_ASC_NODE":38.7313,"ARG_OF_PERICENTER":236.5299,"MEAN_ANOMALY":302.2114,"EPHEMERIS_TYPE":0,"CLASSIFICATION_TYPE":"U","NORAD_CAT_ID":44204,"ELEMENT_SET_NO":999,"REV_AT_EPOCH":615,"BSTAR":0,"MEAN_MOTION_DOT":-2.06e-6,"MEAN_MOTION_DDOT":0},{"OBJECT_NAME":"BEIDOU-2 G8 (C01)","OBJECT_ID":"2019-027A","EPOCH":"2026-03-03T09:37:45.541920","MEAN_MOTION":1.00268063,"ECCENTRICITY":0.00092717,"INCLINATION":1.8655,"RA_OF_ASC_NODE":74.73,"ARG_OF_PERICENTER":269.3734,"MEAN_ANOMALY":105.9868,"EPHEMERIS_TYPE":0,"CLASSIFICATION_TYPE":"U","NORAD_CAT_ID":44231,"ELEMENT_SET_NO":999,"REV_AT_EPOCH":2502,"BSTAR":0,"MEAN_MOTION_DOT":-2.62e-6,"MEAN_MOTION_DDOT":0},{"OBJECT_NAME":"BEIDOU-3 IGSO-2 (C39)","OBJECT_ID":"2019-035A","EPOCH":"2026-02-26T16:31:51.989952","MEAN_MOTION":1.00247364,"ECCENTRICITY":0.00387345,"INCLINATION":55.2338,"RA_OF_ASC_NODE":159.8353,"ARG_OF_PERICENTER":206.4752,"MEAN_ANOMALY":153.7223,"EPHEMERIS_TYPE":0,"CLASSIFICATION_TYPE":"U","NORAD_CAT_ID":44337,"ELEMENT_SET_NO":999,"REV_AT_EPOCH":2456,"BSTAR":0,"MEAN_MOTION_DOT":-1.76e-6,"MEAN_MOTION_DDOT":0},{"OBJECT_NAME":"BEIDOU-3 M24 (C46)","OBJECT_ID":"2019-061A","EPOCH":"2026-03-03T11:05:32.553312","MEAN_MOTION":1.86228787,"ECCENTRICITY":0.00086079,"INCLINATION":54.3994,"RA_OF_ASC_NODE":186.2929,"ARG_OF_PERICENTER":21.3432,"MEAN_ANOMALY":338.6489,"EPHEMERIS_TYPE":0,"CLASSIFICATION_TYPE":"U","NORAD_CAT_ID":44542,"ELEMENT_SET_NO":999,"REV_AT_EPOCH":4382,"BSTAR":0,"MEAN_MOTION_DOT":-1.7e-7,"MEAN_MOTION_DDOT":0},{"OBJECT_NAME":"BEIDOU-3 M23 (C45)","OBJECT_ID":"2019-061B","EPOCH":"2026-03-03T07:40:19.297056","MEAN_MOTION":1.8622717,"ECCENTRICITY":0.00050771,"INCLINATION":54.3976,"RA_OF_ASC_NODE":186.266,"ARG_OF_PERICENTER":14.221,"MEAN_ANOMALY":162.4807,"EPHEMERIS_TYPE":0,"CLASSIFICATION_TYPE":"U","NORAD_CAT_ID":44543,"ELEMENT_SET_NO":999,"REV_AT_EPOCH":4382,"BSTAR":0,"MEAN_MOTION_DOT":-1.8e-7,"MEAN_MOTION_DDOT":0},{"OBJECT_NAME":"BEIDOU-3 IGSO-3 (C40)","OBJECT_ID":"2019-073A","EPOCH":"2026-03-03T00:07:19.211808","MEAN_MOTION":1.00269768,"ECCENTRICITY":0.00404892,"INCLINATION":54.9806,"RA_OF_ASC_NODE":282.0451,"ARG_OF_PERICENTER":189.0046,"MEAN_ANOMALY":170.9845,"EPHEMERIS_TYPE":0,"CLASSIFICATION_TYPE":"U","NORAD_CAT_ID":44709,"ELEMENT_SET_NO":999,"REV_AT_EPOCH":2339,"BSTAR":0,"MEAN_MOTION_DOT":-1.54e-6,"MEAN_MOTION_DDOT":0},{"OBJECT_NAME":"BEIDOU-3 M22 (C44)","OBJECT_ID":"2019-078A","EPOCH":"2026-02-28T01:54:59.619744","MEAN_MOTION":1.86231871,"ECCENTRICITY":0.00072213,"INCLINATION":54.0347,"RA_OF_ASC_NODE":303.6688,"ARG_OF_PERICENTER":34.9561,"MEAN_ANOMALY":325.1493,"EPHEMERIS_TYPE":0,"CLASSIFICATION_TYPE":"U","NORAD_CAT_ID":44793,"ELEMENT_SET_NO":999,"REV_AT_EPOCH":4261,"BSTAR":0,"MEAN_MOTION_DOT":-3.9e-7,"MEAN_MOTION_DDOT":0},{"OBJECT_NAME":"BEIDOU-3 M21 (C43)","OBJECT_ID":"2019-078B","EPOCH":"2026-03-03T10:35:11.477184","MEAN_MOTION":1.86227535,"ECCENTRICITY":0.00058853,"INCLINATION":54.0047,"RA_OF_ASC_NODE":303.5128,"ARG_OF_PERICENTER":39.3589,"MEAN_ANOMALY":320.7432,"EPHEMERIS_TYPE":0,"CLASSIFICATION_TYPE":"U","NORAD_CAT_ID":44794,"ELEMENT_SET_NO":999,"REV_AT_EPOCH":4268,"BSTAR":0,"MEAN_MOTION_DOT":-5.5e-7,"MEAN_MOTION_DDOT":0},{"OBJECT_NAME":"BEIDOU-3 M19 (C41)","OBJECT_ID":"2019-090A","EPOCH":"2026-03-02T06:18:21.805632","MEAN_MOTION":1.8623122,"ECCENTRICITY":0.00204083,"INCLINATION":56.4657,"RA_OF_ASC_NODE":66.3234,"ARG_OF_PERICENTER":291.3317,"MEAN_ANOMALY":195.2232,"EPHEMERIS_TYPE":0,"CLASSIFICATION_TYPE":"U","NORAD_CAT_ID":44864,"ELEMENT_SET_NO":999,"REV_AT_EPOCH":4224,"BSTAR":0,"MEAN_MOTION_DOT":-8.0e-8,"MEAN_MOTION_DDOT":0},{"OBJECT_NAME":"BEIDOU-3 M20 (C42)","OBJECT_ID":"2019-090B","EPOCH":"2026-03-03T19:49:38.667072","MEAN_MOTION":1.86231297,"ECCENTRICITY":0.00178132,"INCLINATION":56.4687,"RA_OF_ASC_NODE":66.3059,"ARG_OF_PERICENTER":302.943,"MEAN_ANOMALY":241.3938,"EPHEMERIS_TYPE":0,"CLASSIFICATION_TYPE":"U","NORAD_CAT_ID":44865,"ELEMENT_SET_NO":999,"REV_AT_EPOCH":4225,"BSTAR":0,"MEAN_MOTION_DOT":-2.1e-7,"MEAN_MOTION_DDOT":0},{"OBJECT_NAME":"BEIDOU-3 G2 (C60)","OBJECT_ID":"2020-017A","EPOCH":"2026-03-04T02:26:09.091104","MEAN_MOTION":1.00271474,"ECCENTRICITY":0.0002769,"INCLINATION":2.6538,"RA_OF_ASC_NODE":45.6555,"ARG_OF_PERICENTER":309.2893,"MEAN_ANOMALY":283.4763,"EPHEMERIS_TYPE":0,"CLASSIFICATION_TYPE":"U","NORAD_CAT_ID":45344,"ELEMENT_SET_NO":999,"REV_AT_EPOCH":2220,"BSTAR":0,"MEAN_MOTION_DOT":-1.51e-6,"MEAN_MOTION_DDOT":0},{"OBJECT_NAME":"BEIDOU-3 G3 (C61)","OBJECT_ID":"2020-040A","EPOCH":"2026-03-04T00:52:10.600320","MEAN_MOTION":1.00275572,"ECCENTRICITY":0.0004301,"INCLINATION":2.1891,"RA_OF_ASC_NODE":67.1211,"ARG_OF_PERICENTER":315.9746,"MEAN_ANOMALY":262.2089,"EPHEMERIS_TYPE":0,"CLASSIFICATION_TYPE":"U","NORAD_CAT_ID":45807,"ELEMENT_SET_NO":999,"REV_AT_EPOCH":2101,"BSTAR":0,"MEAN_MOTION_DOT":-3.65e-6,"MEAN_MOTION_DDOT":0},{"OBJECT_NAME":"BEIDOU-3 G4 (C62)","OBJECT_ID":"2023-066A","EPOCH":"2026-03-04T04:34:38.682336","MEAN_MOTION":1.00272234,"ECCENTRICITY":0.0002044,"INCLINATION":0.6489,"RA_OF_ASC_NODE":310.8945,"ARG_OF_PERICENTER":159.5809,"MEAN_ANOMALY":280.1635,"EPHEMERIS_TYPE":0,"CLASSIFICATION_TYPE":"U","NORAD_CAT_ID":56564,"ELEMENT_SET_NO":999,"REV_AT_EPOCH":1034,"BSTAR":0,"MEAN_MOTION_DOT":-1.24e-6,"MEAN_MOTION_DDOT":0},{"OBJECT_NAME":"BEIDOU-3 M28 (C50)","OBJECT_ID":"2023-207A","EPOCH":"2026-03-02T23:33:32.220288","MEAN_MOTION":1.86229755,"ECCENTRICITY":0.00048964,"INCLINATION":55.6589,"RA_OF_ASC_NODE":65.8845,"ARG_OF_PERICENTER":302.3246,"MEAN_ANOMALY":57.6586,"EPHEMERIS_TYPE":0,"CLASSIFICATION_TYPE":"U","NORAD_CAT_ID":58654,"ELEMENT_SET_NO":999,"REV_AT_EPOCH":1486,"BSTAR":0,"MEAN_MOTION_DOT":-1.7e-7,"MEAN_MOTION_DDOT":0},{"OBJECT_NAME":"BEIDOU-3 M26 (C48)","OBJECT_ID":"2023-207B","EPOCH":"2026-03-03T07:35:07.280736","MEAN_MOTION":1.86229607,"ECCENTRICITY":0.00057218,"INCLINATION":55.6613,"RA_OF_ASC_NODE":65.8595,"ARG_OF_PERICENTER":288.0153,"MEAN_ANOMALY":71.9513,"EPHEMERIS_TYPE":0,"CLASSIFICATION_TYPE":"U","NORAD_CAT_ID":58655,"ELEMENT_SET_NO":999,"REV_AT_EPOCH":1485,"BSTAR":0,"MEAN_MOTION_DOT":-2.0e-7,"MEAN_MOTION_DDOT":0}]
